[
  {
    "distance": 1,
    "tags": {
      "highway": "footway",
      "foot": "yes"
    },
    "coordinateString": "41.307333, -72.925814"
  },
  {
    "distance": 50,
    "tags": {
      "reversedirection": "yes",
      "highway": "footway",
      "foot": "yes"
    },
    "coordinateString": "41.307534, -72.926315"
  },
  {
    "distance": 186,
    "tags": {
      "highway": "footway",
      "foot": "yes"
    },
    "coordinateString": "41.307346, -72.928479"
  },
  {
    "distance": 4,
    "tags": {
      "reversedirection": "yes",
      "highway": "footway",
      "foot": "yes"
    },
    "coordinateString": "41.307338, -72.928521"
  },
  {
    "distance": 14,
    "tags": {
      "highway": "residential",
      "cycleway": "lane"
    },
    "coordinateString": "41.314664, -72.959051"
  },
  {
    "distance": 5,
    "tags": {
      "highway": "residential",
      "cycleway": "lane"
    },
    "coordinateString": "41.314703, -72.959077"
  },
  {
    "distance": 322,
    "tags": {
      "highway": "residential",
      "cycleway": "lane"
    },
    "coordinateString": "41.317481, -72.959946"
  },
  {
    "distance": 12,
    "tags": {
      "highway": "residential",
      "cycleway": "lane"
    },
    "coordinateString": "41.317582, -72.959950"
  },
  {
    "distance": 11,
    "tags": {
      "highway": "residential"
    },
    "coordinateString": "41.322914, -72.970829"
  },
  {
    "distance": 89,
    "tags": {
      "highway": "residential"
    },
    "coordinateString": "41.323196, -72.971823"
  },
  {
    "distance": 214,
    "tags": {
      "highway": "residential",
      "oneway": "yes"
    },
    "coordinateString": "41.324891, -72.971888"
  },
  {
    "distance": 3,
    "tags": {
      "highway": "residential",
      "oneway": "yes"
    },
    "coordinateString": "41.324909, -72.971883"
  },
  {
    "distance": 11,
    "tags": {
      "highway": "residential",
      "oneway": "yes"
    },
    "coordinateString": "41.325005, -72.971854"
  },
  {
    "distance": 324,
    "tags": {
      "highway": "residential"
    },
    "coordinateString": "41.324101, -72.974795"
  },
  {
    "distance": 15,
    "tags": {
      "highway": "residential"
    },
    "coordinateString": "41.324146, -72.974946"
  },
  {
    "distance": 235,
    "tags": {
      "highway": "residential"
    },
    "coordinateString": "41.324769, -72.977582"
  },
  {
    "distance": 2,
    "tags": {
      "highway": "residential"
    },
    "coordinateString": "41.324775, -72.977601"
  },
  {
    "distance": 14,
    "tags": {
      "highway": "residential"
    },
    "coordinateString": "41.324758, -72.977712"
  },
  {
    "distance": 2,
    "tags": {
      "highway": "residential"
    },
    "coordinateString": "41.324743, -72.977723"
  },
  {
    "distance": 1179,
    "tags": {
      "highway": "residential"
    },
    "coordinateString": "41.329756, -72.982764"
  },
  {
    "distance": 3,
    "tags": {
      "highway": "residential"
    },
    "coordinateString": "41.329776, -72.982753"
  },
  {
    "distance": 8,
    "tags": {
      "highway": "residential"
    },
    "coordinateString": "41.329841, -72.982718"
  },
  {
    "distance": 9,
    "tags": {
      "highway": "residential"
    },
    "coordinateString": "41.346215, -73.004825"
  },
  {
    "distance": 200,
    "tags": {
      "highway": "unclassified"
    },
    "coordinateString": "41.349863, -73.008401"
  },
  {
    "distance": 405,
    "tags": {
      "highway": "footway"
    },
    "coordinateString": "41.352780, -73.010666"
  },
  {
    "distance": 14,
    "tags": {
      "reversedirection": "yes",
      "highway": "footway"
    },
    "coordinateString": "41.352901, -73.010662"
  },
  {
    "distance": 44,
    "tags": {
      "reversedirection": "yes",
      "highway": "service"
    },
    "coordinateString": "41.353274, -73.010452"
  },
  {
    "distance": 159,
    "tags": {
      "highway": "residential"
    },
    "coordinateString": "41.354403, -73.013263"
  },
  {
    "distance": 35,
    "tags": {
      "reversedirection": "yes",
      "highway": "service"
    },
    "coordinateString": "41.354686, -73.013196"
  },
  {
    "distance": 88,
    "tags": {
      "reversedirection": "yes",
      "highway": "residential"
    },
    "coordinateString": "41.364847, -73.022740"
  },
  {
    "distance": 1042,
    "tags": {
      "reversedirection": "yes",
      "highway": "residential"
    },
    "coordinateString": "41.369748, -73.013571"
  },
  {
    "distance": 279,
    "tags": {
      "highway": "residential"
    },
    "coordinateString": "41.368402, -73.011657"
  },
  {
    "distance": 20,
    "tags": {
      "highway": "service"
    },
    "coordinateString": "41.368225, -73.011660"
  },
  {
    "distance": 247,
    "tags": {
      "reversedirection": "yes",
      "highway": "service"
    },
    "coordinateString": "41.368502, -73.008990"
  },
  {
    "distance": 224,
    "tags": {
      "highway": "residential"
    },
    "coordinateString": "41.368674, -73.006287"
  },
  {
    "distance": 715,
    "tags": {
      "reversedirection": "yes",
      "highway": "residential"
    },
    "coordinateString": "41.369605, -72.997933"
  },
  {
    "distance": 877,
    "tags": {
      "highway": "residential"
    },
    "coordinateString": "41.376595, -72.991414"
  },
  {
    "distance": 464,
    "tags": {
      "highway": "residential"
    },
    "coordinateString": "41.391316, -72.983202"
  },
  {
    "distance": 11,
    "tags": {
      "highway": "service"
    },
    "coordinateString": "41.391302, -72.983323"
  },
  {
    "distance": 69,
    "tags": {
      "highway": "service"
    },
    "coordinateString": "41.391214, -72.984123"
  },
  {
    "distance": 53,
    "tags": {
      "highway": "residential"
    },
    "coordinateString": "41.431207, -73.005229"
  },
  {
    "distance": 359,
    "tags": {
      "reversedirection": "yes",
      "highway": "residential"
    },
    "coordinateString": "41.446451, -73.069316"
  },
  {
    "distance": 56,
    "tags": {
      "reversedirection": "yes",
      "highway": "service",
      "tracktype": "grade1"
    },
    "coordinateString": "41.456432, -73.061844"
  },
  {
    "distance": 61,
    "tags": {
      "reversedirection": "yes",
      "highway": "service"
    },
    "coordinateString": "41.494545, -73.103438"
  },
  {
    "distance": 21,
    "tags": {
      "highway": "residential",
      "route_bicycle_lcn": "yes"
    },
    "coordinateString": "41.471326, -73.199263"
  },
  {
    "distance": 1687,
    "tags": {
      "reversedirection": "yes",
      "highway": "residential"
    },
    "coordinateString": "41.585317, -73.389459"
  },
  {
    "distance": 4,
    "tags": {
      "reversedirection": "yes",
      "highway": "service"
    },
    "coordinateString": "41.581161, -73.407734"
  },
  {
    "distance": 6,
    "tags": {
      "highway": "service"
    },
    "coordinateString": "41.581184, -73.407770"
  },
  {
    "distance": 19,
    "tags": {
      "highway": "residential"
    },
    "coordinateString": "41.580484, -73.415557"
  },
  {
    "distance": 1420,
    "tags": {
      "highway": "residential"
    },
    "coordinateString": "41.592338, -73.418221"
  },
  {
    "distance": 704,
    "tags": {
      "reversedirection": "yes",
      "highway": "residential"
    },
    "coordinateString": "41.592853, -73.426312"
  },
  {
    "distance": 279,
    "tags": {
      "reversedirection": "yes",
      "highway": "residential",
      "route_bicycle_ncn": "yes"
    },
    "coordinateString": "41.646784, -73.476133"
  },
  {
    "distance": 9,
    "tags": {
      "reversedirection": "yes",
      "highway": "residential",
      "route_bicycle_ncn": "yes"
    },
    "coordinateString": "41.646818, -73.476040"
  },
  {
    "distance": 14,
    "tags": {
      "reversedirection": "yes",
      "highway": "residential",
      "lanes": "1",
      "route_bicycle_ncn": "yes"
    },
    "coordinateString": "41.675692, -73.508768"
  },
  {
    "distance": 23,
    "tags": {
      "reversedirection": "yes",
      "highway": "residential",
      "route_bicycle_ncn": "yes"
    },
    "coordinateString": "41.675711, -73.509035"
  },
  {
    "distance": 432,
    "tags": {
      "reversedirection": "yes",
      "highway": "residential",
      "route_bicycle_ncn": "yes"
    },
    "coordinateString": "41.675698, -73.514095"
  },
  {
    "distance": 32,
    "tags": {
      "reversedirection": "yes",
      "highway": "residential",
      "route_bicycle_ncn": "yes"
    },
    "coordinateString": "41.675768, -73.514457"
  },
  {
    "distance": 10,
    "tags": {
      "highway": "residential"
    },
    "coordinateString": "41.729358, -73.489040"
  },
  {
    "distance": 414,
    "tags": {
      "highway": "residential"
    },
    "coordinateString": "41.830101, -73.426971"
  },
  {
    "distance": 81,
    "tags": {
      "reversedirection": "yes",
      "highway": "residential"
    },
    "coordinateString": "41.830465, -73.426130"
  },
  {
    "distance": 7,
    "tags": {
      "highway": "residential"
    },
    "coordinateString": "41.918564, -73.341229"
  },
  {
    "distance": 2625,
    "tags": {
      "reversedirection": "yes",
      "highway": "footway"
    },
    "coordinateString": "41.968163, -73.226237"
  },
  {
    "distance": 945,
    "tags": {
      "highway": "service",
      "access": "permissive"
    },
    "coordinateString": "41.986885, -73.222476"
  },
  {
    "distance": 75,
    "tags": {
      "highway": "residential"
    },
    "coordinateString": "41.838822, -73.029537"
  },
  {
    "distance": 149,
    "tags": {
      "highway": "residential"
    },
    "coordinateString": "41.838751, -73.023307"
  },
  {
    "distance": 536,
    "tags": {
      "reversedirection": "yes",
      "highway": "unclassified"
    },
    "coordinateString": "41.832788, -72.930792"
  },
  {
    "distance": 1021,
    "tags": {
      "reversedirection": "yes",
      "highway": "residential"
    },
    "coordinateString": "41.824142, -72.929726"
  },
  {
    "distance": 270,
    "tags": {
      "reversedirection": "yes",
      "highway": "residential"
    },
    "coordinateString": "41.820579, -72.931090"
  },
  {
    "distance": 153,
    "tags": {
      "reversedirection": "yes",
      "highway": "residential",
      "route_bicycle_rcn": "yes"
    },
    "coordinateString": "41.819960, -72.922347"
  },
  {
    "distance": 19,
    "tags": {
      "highway": "cycleway",
      "foot": "designated",
      "bicycle": "designated",
      "route_bicycle_rcn": "yes"
    },
    "coordinateString": "41.819966, -72.922126"
  },
  {
    "distance": 9,
    "tags": {
      "highway": "cycleway",
      "foot": "designated",
      "bicycle": "designated",
      "cycleway": "crossing",
      "route_bicycle_rcn": "yes"
    },
    "coordinateString": "41.820015, -72.922047"
  },
  {
    "distance": 7,
    "tags": {
      "highway": "cycleway",
      "foot": "designated",
      "bicycle": "designated",
      "cycleway": "crossing",
      "route_bicycle_rcn": "yes"
    },
    "coordinateString": "41.820050, -72.921989"
  },
  {
    "distance": 6,
    "tags": {
      "reversedirection": "yes",
      "highway": "cycleway",
      "route_bicycle_rcn": "yes"
    },
    "coordinateString": "41.820798, -72.913599"
  },
  {
    "distance": 17,
    "tags": {
      "reversedirection": "yes",
      "highway": "cycleway",
      "route_bicycle_rcn": "yes"
    },
    "coordinateString": "41.820855, -72.913421"
  },
  {
    "distance": 6,
    "tags": {
      "highway": "cycleway",
      "foot": "designated",
      "bicycle": "designated",
      "route_bicycle_rcn": "yes"
    },
    "coordinateString": "41.823608, -72.888437"
  },
  {
    "distance": 110,
    "tags": {
      "highway": "cycleway",
      "foot": "designated",
      "bicycle": "designated",
      "route_bicycle_rcn": "yes"
    },
    "coordinateString": "41.823948, -72.887546"
  },
  {
    "distance": 464,
    "tags": {
      "highway": "residential",
      "route_bicycle_rcn": "yes"
    },
    "coordinateString": "41.827478, -72.884647"
  },
  {
    "distance": 513,
    "tags": {
      "reversedirection": "yes",
      "highway": "residential"
    },
    "coordinateString": "41.835482, -72.878539"
  },
  {
    "distance": 583,
    "tags": {
      "highway": "residential",
      "route_bicycle_rcn": "yes"
    },
    "coordinateString": "41.837606, -72.872518"
  },
  {
    "distance": 520,
    "tags": {
      "reversedirection": "yes",
      "highway": "residential",
      "route_bicycle_rcn": "yes"
    },
    "coordinateString": "41.841394, -72.869504"
  },
  {
    "distance": 441,
    "tags": {
      "reversedirection": "yes",
      "highway": "residential",
      "route_bicycle_rcn": "yes"
    },
    "coordinateString": "41.845123, -72.867768"
  },
  {
    "distance": 35,
    "tags": {
      "reversedirection": "yes",
      "highway": "residential",
      "route_bicycle_rcn": "yes"
    },
    "coordinateString": "41.845416, -72.867642"
  },
  {
    "distance": 14,
    "tags": {
      "reversedirection": "yes",
      "highway": "residential"
    },
    "coordinateString": "41.860008, -72.837852"
  },
  {
    "distance": 637,
    "tags": {
      "reversedirection": "yes",
      "highway": "residential",
      "oneway": "no"
    },
    "coordinateString": "41.869976, -72.791089"
  },
  {
    "distance": 153,
    "tags": {
      "highway": "residential"
    },
    "coordinateString": "41.868648, -72.791444"
  },
  {
    "distance": 7,
    "tags": {
      "highway": "steps"
    },
    "coordinateString": "41.865518, -72.786234"
  },
  {
    "distance": 15,
    "tags": {
      "reversedirection": "yes",
      "highway": "residential"
    },
    "coordinateString": "41.905271, -72.763206"
  },
  {
    "distance": 15,
    "tags": {
      "reversedirection": "yes",
      "highway": "service",
      "bicycle": "yes"
    },
    "coordinateString": "41.905359, -72.763336"
  },
  {
    "distance": 167,
    "tags": {
      "reversedirection": "yes",
      "highway": "residential"
    },
    "coordinateString": "41.907415, -72.765483"
  },
  {
    "distance": 13,
    "tags": {
      "reversedirection": "yes",
      "highway": "residential"
    },
    "coordinateString": "41.907515, -72.765549"
  },
  {
    "distance": 257,
    "tags": {
      "reversedirection": "yes",
      "highway": "residential"
    },
    "coordinateString": "41.909551, -72.766843"
  },
  {
    "distance": 100,
    "tags": {
      "reversedirection": "yes",
      "highway": "residential"
    },
    "coordinateString": "41.909874, -72.765776"
  },
  {
    "distance": 237,
    "tags": {
      "reversedirection": "yes",
      "highway": "residential"
    },
    "coordinateString": "41.910461, -72.763051"
  },
  {
    "distance": 9,
    "tags": {
      "reversedirection": "yes",
      "highway": "residential"
    },
    "coordinateString": "41.910493, -72.762958"
  },
  {
    "distance": 122,
    "tags": {
      "highway": "residential"
    },
    "coordinateString": "41.910011, -72.761999"
  },
  {
    "distance": 627,
    "tags": {
      "highway": "footway"
    },
    "coordinateString": "41.911304, -72.757252"
  },
  {
    "distance": 3276,
    "tags": {
      "highway": "footway"
    },
    "coordinateString": "41.946017, -72.741075"
  },
  {
    "distance": 3,
    "tags": {
      "reversedirection": "yes",
      "highway": "residential"
    },
    "coordinateString": "41.932369, -72.655181"
  },
  {
    "distance": 3,
    "tags": {
      "highway": "residential"
    },
    "coordinateString": "41.934533, -72.655019"
  },
  {
    "distance": 77,
    "tags": {
      "highway": "service",
      "route_bicycle_lcn": "yes"
    },
    "coordinateString": "41.932515, -72.626713"
  },
  {
    "distance": 33,
    "tags": {
      "reversedirection": "yes",
      "highway": "cycleway",
      "route_bicycle_lcn": "yes"
    },
    "coordinateString": "41.957172, -72.618715"
  },
  {
    "distance": 8,
    "tags": {
      "reversedirection": "yes",
      "highway": "cycleway",
      "route_bicycle_lcn": "yes"
    },
    "coordinateString": "41.986645, -72.605509"
  },
  {
    "distance": 7,
    "tags": {
      "highway": "service"
    },
    "coordinateString": "41.953557, -72.563110"
  },
  {
    "distance": 341,
    "tags": {
      "highway": "residential"
    },
    "coordinateString": "41.981882, -72.398979"
  },
  {
    "distance": 392,
    "tags": {
      "reversedirection": "yes",
      "highway": "residential"
    },
    "coordinateString": "42.024957, -72.145319"
  },
  {
    "distance": 87,
    "tags": {
      "reversedirection": "yes",
      "highway": "residential"
    },
    "coordinateString": "41.886078, -72.043544"
  },
  {
    "distance": 35,
    "tags": {
      "reversedirection": "yes",
      "highway": "residential"
    },
    "coordinateString": "41.798589, -72.090730"
  },
  {
    "distance": 5,
    "tags": {
      "highway": "residential",
      "access": "yes",
      "foot": "yes",
      "bicycle": "yes"
    },
    "coordinateString": "41.712457, -72.206324"
  },
  {
    "distance": 7,
    "tags": {
      "highway": "residential",
      "oneway": "yes"
    },
    "coordinateString": "41.713456, -72.212278"
  },
  {
    "distance": 167,
    "tags": {
      "highway": "residential",
      "oneway": "yes"
    },
    "coordinateString": "41.712058, -72.212853"
  },
  {
    "distance": 10,
    "tags": {
      "highway": "residential",
      "oneway": "yes"
    },
    "coordinateString": "41.711977, -72.212887"
  },
  {
    "distance": 55,
    "tags": {
      "highway": "cycleway",
      "foot": "designated",
      "bicycle": "designated",
      "route_bicycle_lcn": "yes"
    },
    "coordinateString": "41.713253, -72.238206"
  },
  {
    "distance": 32,
    "tags": {
      "reversedirection": "yes",
      "highway": "footway"
    },
    "coordinateString": "41.553401, -72.448784"
  },
  {
    "distance": 25,
    "tags": {
      "highway": "service"
    },
    "coordinateString": "41.444506, -72.383741"
  },
  {
    "distance": 68,
    "tags": {
      "reversedirection": "yes",
      "highway": "residential"
    },
    "coordinateString": "41.424904, -72.428150"
  },
  {
    "distance": 29,
    "tags": {
      "highway": "residential"
    },
    "coordinateString": "41.422815, -72.428609"
  },
  {
    "distance": 26,
    "tags": {
      "highway": "residential",
      "oneway": "yes"
    },
    "coordinateString": "41.422619, -72.428769"
  },
  {
    "distance": 80,
    "tags": {
      "highway": "residential"
    },
    "coordinateString": "41.422345, -72.428733"
  },
  {
    "distance": 1,
    "tags": {
      "highway": "service"
    },
    "coordinateString": "41.422309, -72.428694"
  },
  {
    "distance": 146,
    "tags": {
      "reversedirection": "yes",
      "highway": "residential"
    },
    "coordinateString": "41.422321, -72.428167"
  },
  {
    "distance": 35,
    "tags": {
      "highway": "residential"
    },
    "coordinateString": "41.415499, -72.437234"
  },
  {
    "distance": 351,
    "tags": {
      "reversedirection": "yes",
      "highway": "residential"
    },
    "coordinateString": "41.335164, -72.670308"
  },
  {
    "distance": 12,
    "tags": {
      "highway": "footway"
    },
    "coordinateString": "41.309136, -72.670336"
  },
  {
    "distance": 188,
    "tags": {
      "highway": "residential"
    },
    "coordinateString": "41.307870, -72.671812"
  },
  {
    "distance": 2568,
    "tags": {
      "reversedirection": "yes",
      "highway": "residential"
    },
    "coordinateString": "41.290281, -72.682800"
  },
  {
    "distance": 35,
    "tags": {
      "highway": "residential",
      "oneway": "yes"
    },
    "coordinateString": "41.290015, -72.682774"
  },
  {
    "distance": 202,
    "tags": {
      "reversedirection": "yes",
      "highway": "residential"
    },
    "coordinateString": "41.288270, -72.682159"
  },
  {
    "distance": 454,
    "tags": {
      "reversedirection": "yes",
      "highway": "residential"
    },
    "coordinateString": "41.284323, -72.681140"
  },
  {
    "distance": 294,
    "tags": {
      "highway": "footway"
    },
    "coordinateString": "41.281670, -72.681700"
  },
  {
    "distance": 9,
    "tags": {
      "reversedirection": "yes",
      "highway": "pedestrian"
    },
    "coordinateString": "41.281595, -72.681739"
  },
  {
    "distance": 312,
    "tags": {
      "highway": "residential"
    },
    "coordinateString": "41.277133, -72.693526"
  },
  {
    "distance": 144,
    "tags": {
      "reversedirection": "yes",
      "highway": "residential"
    },
    "coordinateString": "41.275899, -72.693796"
  },
  {
    "distance": 1210,
    "tags": {
      "highway": "residential"
    },
    "coordinateString": "41.276324, -72.706094"
  },
  {
    "distance": 41,
    "tags": {
      "reversedirection": "yes",
      "highway": "residential"
    },
    "coordinateString": "41.276488, -72.706488"
  },
  {
    "distance": 92,
    "tags": {
      "highway": "service"
    },
    "coordinateString": "41.276944, -72.707357"
  },
  {
    "distance": 18,
    "tags": {
      "reversedirection": "yes",
      "highway": "residential"
    },
    "coordinateString": "41.292328, -72.724034"
  },
  {
    "distance": 153,
    "tags": {
      "reversedirection": "yes",
      "highway": "footway"
    },
    "coordinateString": "41.293390, -72.724948"
  },
  {
    "distance": 140,
    "tags": {
      "reversedirection": "yes",
      "highway": "residential"
    },
    "coordinateString": "41.292831, -72.726407"
  },
  {
    "distance": 147,
    "tags": {
      "reversedirection": "yes",
      "highway": "service"
    },
    "coordinateString": "41.292211, -72.727919"
  },
  {
    "distance": 24,
    "tags": {
      "highway": "service"
    },
    "coordinateString": "41.265486, -72.729944"
  },
  {
    "distance": 17,
    "tags": {
      "reversedirection": "yes",
      "highway": "service"
    },
    "coordinateString": "41.266226, -72.732141"
  },
  {
    "distance": 63,
    "tags": {
      "reversedirection": "yes",
      "highway": "service"
    },
    "coordinateString": "41.266197, -72.732864"
  },
  {
    "distance": 423,
    "tags": {
      "reversedirection": "yes",
      "highway": "residential"
    },
    "coordinateString": "41.264729, -72.750950"
  },
  {
    "distance": 25,
    "tags": {
      "reversedirection": "yes",
      "highway": "footway"
    },
    "coordinateString": "41.268819, -72.752401"
  },
  {
    "distance": 252,
    "tags": {
      "highway": "residential"
    },
    "coordinateString": "41.269458, -72.755111"
  },
  {
    "distance": 998,
    "tags": {
      "reversedirection": "yes",
      "highway": "footway"
    },
    "coordinateString": "41.270043, -72.766705"
  },
  {
    "distance": 14,
    "tags": {
      "reversedirection": "yes",
      "highway": "footway"
    },
    "coordinateString": "41.270004, -72.766856"
  },
  {
    "distance": 9,
    "tags": {
      "reversedirection": "yes",
      "highway": "footway"
    },
    "coordinateString": "41.269962, -72.766945"
  },
  {
    "distance": 63,
    "tags": {
      "reversedirection": "yes",
      "highway": "footway"
    },
    "coordinateString": "41.270017, -72.767505"
  },
  {
    "distance": 910,
    "tags": {
      "highway": "footway"
    },
    "coordinateString": "41.274686, -72.773246"
  },
  {
    "distance": 712,
    "tags": {
      "highway": "footway"
    },
    "coordinateString": "41.272314, -72.776925"
  },
  {
    "distance": 151,
    "tags": {
      "reversedirection": "yes",
      "highway": "footway"
    },
    "coordinateString": "41.273038, -72.778101"
  },
  {
    "distance": 213,
    "tags": {
      "highway": "footway"
    },
    "coordinateString": "41.274214, -72.779716"
  },
  {
    "distance": 21,
    "tags": {
      "highway": "footway"
    },
    "coordinateString": "41.274315, -72.779912"
  },
  {
    "distance": 687,
    "tags": {
      "highway": "footway"
    },
    "coordinateString": "41.273885, -72.786644"
  },
  {
    "distance": 764,
    "tags": {
      "reversedirection": "yes",
      "highway": "residential"
    },
    "coordinateString": "41.273857, -72.805093"
  },
  {
    "distance": 1075,
    "tags": {
      "reversedirection": "yes",
      "highway": "residential"
    },
    "coordinateString": "41.275190, -72.812908"
  },
  {
    "distance": 418,
    "tags": {
      "highway": "residential"
    },
    "coordinateString": "41.273363, -72.816907"
  },
  {
    "distance": 1094,
    "tags": {
      "highway": "residential"
    },
    "coordinateString": "41.267938, -72.831442"
  },
  {
    "distance": 373,
    "tags": {
      "highway": "residential"
    },
    "coordinateString": "41.257611, -72.855973"
  },
  {
    "distance": 295,
    "tags": {
      "reversedirection": "yes",
      "highway": "residential"
    },
    "coordinateString": "41.255561, -72.862798"
  },
  {
    "distance": 71,
    "tags": {
      "reversedirection": "yes",
      "highway": "service"
    },
    "coordinateString": "41.254655, -72.867036"
  },
  {
    "distance": 251,
    "tags": {
      "highway": "residential"
    },
    "coordinateString": "41.253855, -72.869604"
  },
  {
    "distance": 370,
    "tags": {
      "reversedirection": "yes",
      "highway": "residential"
    },
    "coordinateString": "41.250542, -72.869320"
  },
  {
    "distance": 153,
    "tags": {
      "highway": "residential"
    },
    "coordinateString": "41.250451, -72.871133"
  },
  {
    "distance": 185,
    "tags": {
      "highway": "residential",
      "oneway": "yes"
    },
    "coordinateString": "41.248880, -72.872692"
  },
  {
    "distance": 468,
    "tags": {
      "highway": "residential"
    },
    "coordinateString": "41.249042, -72.877625"
  },
  {
    "distance": 6,
    "tags": {
      "reversedirection": "yes",
      "highway": "residential",
      "maxspeed": "40"
    },
    "coordinateString": "41.253312, -72.890970"
  },
  {
    "distance": 5,
    "tags": {
      "reversedirection": "yes",
      "highway": "residential",
      "maxspeed": "40"
    },
    "coordinateString": "41.253286, -72.891014"
  },
  {
    "distance": 572,
    "tags": {
      "reversedirection": "yes",
      "highway": "residential",
      "maxspeed": "40"
    },
    "coordinateString": "41.251444, -72.896122"
  },
  {
    "distance": 362,
    "tags": {
      "highway": "residential",
      "maxspeed": "40"
    },
    "coordinateString": "41.254639, -72.896451"
  },
  {
    "distance": 16,
    "tags": {
      "highway": "residential",
      "maxspeed": "40"
    },
    "coordinateString": "41.254765, -72.896476"
  },
  {
    "distance": 58,
    "tags": {
      "highway": "residential",
      "maxspeed": "40"
    },
    "coordinateString": "41.255275, -72.896586"
  },
  {
    "distance": 3,
    "tags": {
      "highway": "residential",
      "maxspeed": "40"
    },
    "coordinateString": "41.255294, -72.896591"
  },
  {
    "distance": 7,
    "tags": {
      "highway": "residential",
      "maxspeed": "40"
    },
    "coordinateString": "41.255350, -72.896604"
  },
  {
    "distance": 5,
    "tags": {
      "highway": "residential",
      "maxspeed": "40",
      "oneway": "yes"
    },
    "coordinateString": "41.255330, -72.896655"
  },
  {
    "distance": 407,
    "tags": {
      "highway": "residential",
      "maxspeed": "40",
      "oneway": "yes"
    },
    "coordinateString": "41.253222, -72.899523"
  },
  {
    "distance": 4,
    "tags": {
      "highway": "residential",
      "maxspeed": "40",
      "oneway": "yes"
    },
    "coordinateString": "41.253193, -72.899503"
  },
  {
    "distance": 7,
    "tags": {
      "highway": "residential",
      "maxspeed": "40",
      "oneway": "yes"
    },
    "coordinateString": "41.253141, -72.899467"
  },
  {
    "distance": 238,
    "tags": {
      "highway": "footway"
    },
    "coordinateString": "41.251173, -72.903566"
  },
  {
    "distance": 4,
    "tags": {
      "reversedirection": "yes",
      "highway": "service",
      "foot": "yes",
      "bicycle": "yes",
      "cycleway": "track"
    },
    "coordinateString": "41.274587, -72.900093"
  },
  {
    "distance": 360,
    "tags": {
      "reversedirection": "yes",
      "highway": "service",
      "foot": "yes",
      "bicycle": "yes",
      "cycleway": "track"
    },
    "coordinateString": "41.276454, -72.901264"
  },
  {
    "distance": 242,
    "tags": {
      "highway": "footway"
    },
    "coordinateString": "41.278083, -72.902399"
  },
  {
    "distance": 688,
    "tags": {
      "reversedirection": "yes",
      "highway": "footway"
    },
    "coordinateString": "41.281507, -72.901714"
  },
  {
    "distance": 11,
    "tags": {
      "reversedirection": "yes",
      "highway": "footway"
    },
    "coordinateString": "41.281521, -72.901587"
  },
  {
    "distance": 131,
    "tags": {
      "highway": "service"
    },
    "coordinateString": "41.281721, -72.900066"
  },
  {
    "distance": 21,
    "tags": {
      "reversedirection": "yes",
      "highway": "service",
      "foot": "yes",
      "bicycle": "yes",
      "cycleway": "track"
    },
    "coordinateString": "41.281904, -72.900114"
  },
  {
    "distance": 24,
    "tags": {
      "reversedirection": "yes",
      "highway": "service",
      "foot": "yes",
      "bicycle": "yes",
      "cycleway": "track"
    },
    "coordinateString": "41.282112, -72.900155"
  },
  {
    "distance": 981,
    "tags": {
      "reversedirection": "yes",
      "highway": "residential"
    },
    "coordinateString": "41.290613, -72.900386"
  },
  {
    "distance": 105,
    "tags": {
      "highway": "residential"
    },
    "coordinateString": "41.291395, -72.899689"
  },
  {
    "distance": 9,
    "tags": {
      "highway": "residential"
    },
    "coordinateString": "41.303484, -72.894013"
  },
  {
    "distance": 5,
    "tags": {
      "highway": "residential"
    },
    "coordinateString": "41.303480, -72.894063"
  },
  {
    "distance": 152,
    "tags": {
      "highway": "residential"
    },
    "coordinateString": "41.303337, -72.895863"
  },
  {
    "distance": 25,
    "tags": {
      "highway": "residential"
    },
    "coordinateString": "41.303311, -72.896158"
  },
  {
    "distance": 14,
    "tags": {
      "highway": "residential"
    },
    "coordinateString": "41.303298, -72.896315"
  },
  {
    "distance": 60,
    "tags": {
      "highway": "residential"
    },
    "coordinateString": "41.303244, -72.897025"
  },
  {
    "distance": 175,
    "tags": {
      "highway": "residential"
    },
    "coordinateString": "41.303077, -72.899092"
  },
  {
    "distance": 83,
    "tags": {
      "highway": "residential"
    },
    "coordinateString": "41.302997, -72.900072"
  },
  {
    "distance": 17,
    "tags": {
      "highway": "residential"
    },
    "coordinateString": "41.302982, -72.900253"
  },
  {
    "distance": 92,
    "tags": {
      "highway": "residential"
    },
    "coordinateString": "41.302897, -72.901327"
  },
  {
    "distance": 78,
    "tags": {
      "highway": "residential"
    },
    "coordinateString": "41.302821, -72.902253"
  },
  {
    "distance": 4,
    "tags": {
      "highway": "residential"
    },
    "coordinateString": "41.302818, -72.902289"
  },
  {
    "distance": 9,
    "tags": {
      "highway": "residential"
    },
    "coordinateString": "41.302810, -72.902386"
  },
  {
    "distance": 8,
    "tags": {
      "reversedirection": "yes",
      "highway": "residential",
      "route_bicycle_ncn": "yes"
    },
    "coordinateString": "41.305190, -72.919970"
  },
  {
    "distance": 175,
    "tags": {
      "reversedirection": "yes",
      "highway": "residential",
      "route_bicycle_ncn": "yes"
    },
    "coordinateString": "41.305791, -72.921847"
  },
  {
    "distance": 7,
    "tags": {
      "reversedirection": "yes",
      "highway": "residential",
      "route_bicycle_ncn": "yes"
    },
    "coordinateString": "41.305819, -72.921911"
  },
  {
    "distance": 12,
    "tags": {
      "reversedirection": "yes",
      "highway": "residential",
      "route_bicycle_ncn": "yes"
    },
    "coordinateString": "41.305872, -72.922033"
  },
  {
    "distance": 9,
    "tags": {
      "reversedirection": "yes",
      "highway": "unclassified",
      "oneway": "yes",
      "cycleway:left": "opposite_lane",
      "route_bicycle_ncn": "yes"
    },
    "coordinateString": "41.305909, -72.922128"
  },
  {
    "distance": 128,
    "tags": {
      "reversedirection": "yes",
      "highway": "unclassified",
      "oneway": "yes",
      "cycleway:left": "opposite_lane",
      "route_bicycle_ncn": "yes"
    },
    "coordinateString": "41.306423, -72.923451"
  },
  {
    "distance": 8,
    "tags": {
      "reversedirection": "yes",
      "highway": "unclassified",
      "oneway": "yes",
      "cycleway:left": "opposite_lane",
      "route_bicycle_ncn": "yes"
    },
    "coordinateString": "41.306455, -72.923535"
  },
  {
    "distance": 25,
    "tags": {
      "highway": "pedestrian",
      "foot": "designated"
    },
    "coordinateString": "41.306532, -72.923891"
  },
  {
    "distance": 103,
    "tags": {
      "highway": "pedestrian"
    },
    "coordinateString": "41.306987, -72.924952"
  },
  {
    "distance": 41,
    "tags": {
      "reversedirection": "yes",
      "highway": "footway",
      "foot": "yes"
    },
    "coordinateString": "41.307243, -72.925586"
  }
]