{
  "distanceUnit": "mile",
  "distance": 358.8,
  "unpavedPavedIndeterminate": {
    "unpaved": {
      "distance": 180.8,
      "percentOfRoute": 0.5
    },
    "paved": {
      "distance": 141.2,
      "percentOfRoute": 0.39
    },
    "indeterminate": {
      "distance": 36.9,
      "percentOfRoute": 0.1
    }
  },
  "unpavedRoad": {
    "distance": 129.6,
    "percentOfRoute": 0.36
  },
  "disusedOrAbandoned": {
    "distance": 0,
    "percentOfRoute": 0
  },
  "byHighway": [
    {
      "highway": "residential",
      "distance": 147.7,
      "percentOfRoute": 0.41,
      "bySurface": [
        {
          "surface": "asphalt",
          "distance": 77.6,
          "percentOfHighway": 0.53,
          "percentOfRoute": 0.22
        },
        {
          "surface": "NONE",
          "distance": 31.5,
          "percentOfHighway": 0.21,
          "percentOfRoute": 0.088
        },
        {
          "surface": "compacted",
          "distance": 27.5,
          "percentOfHighway": 0.19,
          "percentOfRoute": 0.077
        },
        {
          "surface": "unpaved",
          "distance": 9.1,
          "percentOfHighway": 0.062,
          "percentOfRoute": 0.025
        },
        {
          "surface": "gravel",
          "distance": 1.21,
          "percentOfHighway": 0.0082,
          "percentOfRoute": 0.0034
        },
        {
          "surface": "paved",
          "distance": 0.84,
          "percentOfHighway": 0.0057,
          "percentOfRoute": 0.0023
        },
        {
          "surface": "wood",
          "distance": 0.041,
          "percentOfHighway": 0.00028,
          "percentOfRoute": 0.00011
        }
      ]
    },
    {
      "highway": "track",
      "distance": 57.9,
      "percentOfRoute": 0.16,
      "bySurface": [
        {
          "surface": "NONE",
          "distance": 23.1,
          "percentOfHighway": 0.4,
          "percentOfRoute": 0.064
        },
        {
          "surface": "unpaved",
          "distance": 17,
          "percentOfHighway": 0.29,
          "percentOfRoute": 0.047
        },
        {
          "surface": "compacted",
          "distance": 6,
          "percentOfHighway": 0.1,
          "percentOfRoute": 0.017
        },
        {
          "surface": "earth",
          "distance": 5.7,
          "percentOfHighway": 0.098,
          "percentOfRoute": 0.016
        },
        {
          "surface": "gravel",
          "distance": 3.5,
          "percentOfHighway": 0.06,
          "percentOfRoute": 0.0097
        },
        {
          "surface": "dirt",
          "distance": 2.63,
          "percentOfHighway": 0.046,
          "percentOfRoute": 0.0073
        },
        {
          "surface": "asphalt",
          "distance": 0.015,
          "percentOfHighway": 0.00026,
          "percentOfRoute": 0.00004
        }
      ]
    },
    {
      "highway": "path",
      "distance": 39.4,
      "percentOfRoute": 0.11,
      "bySurface": [
        {
          "surface": "NONE",
          "distance": 16.9,
          "percentOfHighway": 0.43,
          "percentOfRoute": 0.047
        },
        {
          "surface": "unpaved",
          "distance": 8.6,
          "percentOfHighway": 0.22,
          "percentOfRoute": 0.024
        },
        {
          "surface": "earth",
          "distance": 7.1,
          "percentOfHighway": 0.18,
          "percentOfRoute": 0.02
        },
        {
          "surface": "dirt",
          "distance": 5.6,
          "percentOfHighway": 0.14,
          "percentOfRoute": 0.016
        },
        {
          "surface": "gravel",
          "distance": 0.31,
          "percentOfHighway": 0.0079,
          "percentOfRoute": 0.00087
        },
        {
          "surface": "grass",
          "distance": 0.27,
          "percentOfHighway": 0.0069,
          "percentOfRoute": 0.00075
        },
        {
          "surface": "concrete",
          "distance": 0.26,
          "percentOfHighway": 0.0065,
          "percentOfRoute": 0.00071
        },
        {
          "surface": "asphalt",
          "distance": 0.24,
          "percentOfHighway": 0.0062,
          "percentOfRoute": 0.00068
        },
        {
          "surface": "wood",
          "distance": 0.053,
          "percentOfHighway": 0.0013,
          "percentOfRoute": 0.00015
        }
      ]
    },
    {
      "highway": "cycleway",
      "distance": 35.9,
      "percentOfRoute": 0.1,
      "bySurface": [
        {
          "surface": "unpaved",
          "distance": 14.8,
          "percentOfHighway": 0.41,
          "percentOfRoute": 0.041
        },
        {
          "surface": "asphalt",
          "distance": 12.4,
          "percentOfHighway": 0.35,
          "percentOfRoute": 0.035
        },
        {
          "surface": "compacted",
          "distance": 6.6,
          "percentOfHighway": 0.18,
          "percentOfRoute": 0.018
        },
        {
          "surface": "fine_gravel",
          "distance": 1.31,
          "percentOfHighway": 0.036,
          "percentOfRoute": 0.0036
        },
        {
          "surface": "NONE",
          "distance": 0.23,
          "percentOfHighway": 0.0064,
          "percentOfRoute": 0.00064
        },
        {
          "surface": "dirt",
          "distance": 0.18,
          "percentOfHighway": 0.0051,
          "percentOfRoute": 0.00051
        },
        {
          "surface": "wood",
          "distance": 0.17,
          "percentOfHighway": 0.0048,
          "percentOfRoute": 0.00048
        },
        {
          "surface": "paved",
          "distance": 0.11,
          "percentOfHighway": 0.0032,
          "percentOfRoute": 0.00032
        },
        {
          "surface": "concrete",
          "distance": 0.028,
          "percentOfHighway": 0.00078,
          "percentOfRoute": 0.00008
        }
      ]
    },
    {
      "highway": "major",
      "distance": 34.9,
      "percentOfRoute": 0.097,
      "bySurface": [
        {
          "surface": "NONE",
          "distance": 26,
          "percentOfHighway": 0.75,
          "percentOfRoute": 0.073
        },
        {
          "surface": "asphalt",
          "distance": 8.9,
          "percentOfHighway": 0.25,
          "percentOfRoute": 0.025
        }
      ]
    },
    {
      "highway": "footway",
      "distance": 15.5,
      "percentOfRoute": 0.043,
      "bySurface": [
        {
          "surface": "NONE",
          "distance": 11.1,
          "percentOfHighway": 0.72,
          "percentOfRoute": 0.031
        },
        {
          "surface": "ground",
          "distance": 0.9,
          "percentOfHighway": 0.058,
          "percentOfRoute": 0.0025
        },
        {
          "surface": "earth",
          "distance": 0.85,
          "percentOfHighway": 0.055,
          "percentOfRoute": 0.0024
        },
        {
          "surface": "concrete",
          "distance": 0.74,
          "percentOfHighway": 0.048,
          "percentOfRoute": 0.0021
        },
        {
          "surface": "asphalt",
          "distance": 0.73,
          "percentOfHighway": 0.047,
          "percentOfRoute": 0.002
        },
        {
          "surface": "unpaved",
          "distance": 0.67,
          "percentOfHighway": 0.043,
          "percentOfRoute": 0.0019
        },
        {
          "surface": "dirt",
          "distance": 0.31,
          "percentOfHighway": 0.02,
          "percentOfRoute": 0.00086
        },
        {
          "surface": "gravel",
          "distance": 0.11,
          "percentOfHighway": 0.0073,
          "percentOfRoute": 0.00031
        },
        {
          "surface": "wood",
          "distance": 0.054,
          "percentOfHighway": 0.0035,
          "percentOfRoute": 0.00015
        },
        {
          "surface": "paving_stones",
          "distance": 0.011,
          "percentOfHighway": 0.00068,
          "percentOfRoute": 0.00003
        }
      ]
    },
    {
      "highway": "service",
      "distance": 14.6,
      "percentOfRoute": 0.041,
      "bySurface": [
        {
          "surface": "unpaved",
          "distance": 5.3,
          "percentOfHighway": 0.36,
          "percentOfRoute": 0.015
        },
        {
          "surface": "compacted",
          "distance": 4,
          "percentOfHighway": 0.27,
          "percentOfRoute": 0.011
        },
        {
          "surface": "NONE",
          "distance": 3.2,
          "percentOfHighway": 0.22,
          "percentOfRoute": 0.0089
        },
        {
          "surface": "asphalt",
          "distance": 1.96,
          "percentOfHighway": 0.13,
          "percentOfRoute": 0.0055
        },
        {
          "surface": "gravel",
          "distance": 0.17,
          "percentOfHighway": 0.012,
          "percentOfRoute": 0.00047
        },
        {
          "surface": "earth",
          "distance": 0.0075,
          "percentOfHighway": 0.00051,
          "percentOfRoute": 0.00002
        }
      ]
    },
    {
      "highway": "unclassified",
      "distance": 11.5,
      "percentOfRoute": 0.032,
      "bySurface": [
        {
          "surface": "asphalt",
          "distance": 4.2,
          "percentOfHighway": 0.36,
          "percentOfRoute": 0.012
        },
        {
          "surface": "paved",
          "distance": 3.9,
          "percentOfHighway": 0.34,
          "percentOfRoute": 0.011
        },
        {
          "surface": "NONE",
          "distance": 1.99,
          "percentOfHighway": 0.17,
          "percentOfRoute": 0.0055
        },
        {
          "surface": "unpaved",
          "distance": 1.35,
          "percentOfHighway": 0.12,
          "percentOfRoute": 0.0038
        }
      ]
    },
    {
      "highway": "pedestrian",
      "distance": 1.45,
      "percentOfRoute": 0.004,
      "bySurface": [
        {
          "surface": "NONE",
          "distance": 1.23,
          "percentOfHighway": 0.85,
          "percentOfRoute": 0.0034
        },
        {
          "surface": "paved",
          "distance": 0.22,
          "percentOfHighway": 0.15,
          "percentOfRoute": 0.00062
        }
      ]
    },
    {
      "highway": "construction",
      "distance": 0.031,
      "percentOfRoute": 0.00009,
      "bySurface": [
        {
          "surface": "asphalt",
          "distance": 0.031,
          "percentOfHighway": 1,
          "percentOfRoute": 0.00009
        }
      ]
    },
    {
      "highway": "steps",
      "distance": 0.0043,
      "percentOfRoute": 0.00001,
      "bySurface": [
        {
          "surface": "NONE",
          "distance": 0.0043,
          "percentOfHighway": 1,
          "percentOfRoute": 0.00001
        }
      ]
    }
  ],
  "bySurface": [
    {
      "surface": "NONE",
      "distance": 115.3,
      "percentOfRoute": 0.32,
      "byHighway": [
        {
          "highway": "residential",
          "distance": 31.5,
          "percentOfSurface": 0.27,
          "percentOfRoute": 0.088
        },
        {
          "highway": "major",
          "distance": 26,
          "percentOfSurface": 0.23,
          "percentOfRoute": 0.073
        },
        {
          "highway": "track",
          "distance": 23.1,
          "percentOfSurface": 0.2,
          "percentOfRoute": 0.064
        },
        {
          "highway": "path",
          "distance": 16.9,
          "percentOfSurface": 0.15,
          "percentOfRoute": 0.047
        },
        {
          "highway": "footway",
          "distance": 11.1,
          "percentOfSurface": 0.096,
          "percentOfRoute": 0.031
        },
        {
          "highway": "service",
          "distance": 3.2,
          "percentOfSurface": 0.028,
          "percentOfRoute": 0.0089
        },
        {
          "highway": "unclassified",
          "distance": 1.99,
          "percentOfSurface": 0.017,
          "percentOfRoute": 0.0055
        },
        {
          "highway": "pedestrian",
          "distance": 1.23,
          "percentOfSurface": 0.011,
          "percentOfRoute": 0.0034
        },
        {
          "highway": "cycleway",
          "distance": 0.23,
          "percentOfSurface": 0.002,
          "percentOfRoute": 0.00064
        },
        {
          "highway": "steps",
          "distance": 0.0043,
          "percentOfSurface": 0.00004,
          "percentOfRoute": 0.00001
        }
      ]
    },
    {
      "surface": "asphalt",
      "distance": 106.1,
      "percentOfRoute": 0.3,
      "byHighway": [
        {
          "highway": "residential",
          "distance": 77.6,
          "percentOfSurface": 0.73,
          "percentOfRoute": 0.22
        },
        {
          "highway": "cycleway",
          "distance": 12.4,
          "percentOfSurface": 0.12,
          "percentOfRoute": 0.035
        },
        {
          "highway": "major",
          "distance": 8.9,
          "percentOfSurface": 0.084,
          "percentOfRoute": 0.025
        },
        {
          "highway": "unclassified",
          "distance": 4.2,
          "percentOfSurface": 0.039,
          "percentOfRoute": 0.012
        },
        {
          "highway": "service",
          "distance": 1.96,
          "percentOfSurface": 0.018,
          "percentOfRoute": 0.0055
        },
        {
          "highway": "footway",
          "distance": 0.73,
          "percentOfSurface": 0.0069,
          "percentOfRoute": 0.002
        },
        {
          "highway": "path",
          "distance": 0.24,
          "percentOfSurface": 0.0023,
          "percentOfRoute": 0.00068
        },
        {
          "highway": "construction",
          "distance": 0.031,
          "percentOfSurface": 0.00029,
          "percentOfRoute": 0.00009
        },
        {
          "highway": "track",
          "distance": 0.015,
          "percentOfSurface": 0.00014,
          "percentOfRoute": 0.00004
        }
      ]
    },
    {
      "surface": "unpaved",
      "distance": 56.9,
      "percentOfRoute": 0.16,
      "byHighway": [
        {
          "highway": "track",
          "distance": 17,
          "percentOfSurface": 0.3,
          "percentOfRoute": 0.047
        },
        {
          "highway": "cycleway",
          "distance": 14.8,
          "percentOfSurface": 0.26,
          "percentOfRoute": 0.041
        },
        {
          "highway": "residential",
          "distance": 9.1,
          "percentOfSurface": 0.16,
          "percentOfRoute": 0.025
        },
        {
          "highway": "path",
          "distance": 8.6,
          "percentOfSurface": 0.15,
          "percentOfRoute": 0.024
        },
        {
          "highway": "service",
          "distance": 5.3,
          "percentOfSurface": 0.094,
          "percentOfRoute": 0.015
        },
        {
          "highway": "unclassified",
          "distance": 1.35,
          "percentOfSurface": 0.024,
          "percentOfRoute": 0.0038
        },
        {
          "highway": "footway",
          "distance": 0.67,
          "percentOfSurface": 0.012,
          "percentOfRoute": 0.0019
        }
      ]
    },
    {
      "surface": "compacted",
      "distance": 44,
      "percentOfRoute": 0.12,
      "byHighway": [
        {
          "highway": "residential",
          "distance": 27.5,
          "percentOfSurface": 0.62,
          "percentOfRoute": 0.077
        },
        {
          "highway": "cycleway",
          "distance": 6.6,
          "percentOfSurface": 0.15,
          "percentOfRoute": 0.018
        },
        {
          "highway": "track",
          "distance": 6,
          "percentOfSurface": 0.14,
          "percentOfRoute": 0.017
        },
        {
          "highway": "service",
          "distance": 4,
          "percentOfSurface": 0.091,
          "percentOfRoute": 0.011
        }
      ]
    },
    {
      "surface": "earth",
      "distance": 13.6,
      "percentOfRoute": 0.038,
      "byHighway": [
        {
          "highway": "path",
          "distance": 7.1,
          "percentOfSurface": 0.52,
          "percentOfRoute": 0.02
        },
        {
          "highway": "track",
          "distance": 5.7,
          "percentOfSurface": 0.42,
          "percentOfRoute": 0.016
        },
        {
          "highway": "footway",
          "distance": 0.85,
          "percentOfSurface": 0.062,
          "percentOfRoute": 0.0024
        },
        {
          "highway": "service",
          "distance": 0.0075,
          "percentOfSurface": 0.00055,
          "percentOfRoute": 0.00002
        }
      ]
    },
    {
      "surface": "dirt",
      "distance": 8.7,
      "percentOfRoute": 0.024,
      "byHighway": [
        {
          "highway": "path",
          "distance": 5.6,
          "percentOfSurface": 0.64,
          "percentOfRoute": 0.016
        },
        {
          "highway": "track",
          "distance": 2.63,
          "percentOfSurface": 0.3,
          "percentOfRoute": 0.0073
        },
        {
          "highway": "footway",
          "distance": 0.31,
          "percentOfSurface": 0.035,
          "percentOfRoute": 0.00086
        },
        {
          "highway": "cycleway",
          "distance": 0.18,
          "percentOfSurface": 0.021,
          "percentOfRoute": 0.00051
        }
      ]
    },
    {
      "surface": "gravel",
      "distance": 5.3,
      "percentOfRoute": 0.015,
      "byHighway": [
        {
          "highway": "track",
          "distance": 3.5,
          "percentOfSurface": 0.66,
          "percentOfRoute": 0.0097
        },
        {
          "highway": "residential",
          "distance": 1.21,
          "percentOfSurface": 0.23,
          "percentOfRoute": 0.0034
        },
        {
          "highway": "path",
          "distance": 0.31,
          "percentOfSurface": 0.059,
          "percentOfRoute": 0.00087
        },
        {
          "highway": "service",
          "distance": 0.17,
          "percentOfSurface": 0.032,
          "percentOfRoute": 0.00047
        },
        {
          "highway": "footway",
          "distance": 0.11,
          "percentOfSurface": 0.021,
          "percentOfRoute": 0.00031
        }
      ]
    },
    {
      "surface": "paved",
      "distance": 5.1,
      "percentOfRoute": 0.014,
      "byHighway": [
        {
          "highway": "unclassified",
          "distance": 3.9,
          "percentOfSurface": 0.77,
          "percentOfRoute": 0.011
        },
        {
          "highway": "residential",
          "distance": 0.84,
          "percentOfSurface": 0.16,
          "percentOfRoute": 0.0023
        },
        {
          "highway": "pedestrian",
          "distance": 0.22,
          "percentOfSurface": 0.044,
          "percentOfRoute": 0.00062
        },
        {
          "highway": "cycleway",
          "distance": 0.11,
          "percentOfSurface": 0.022,
          "percentOfRoute": 0.00032
        }
      ]
    },
    {
      "surface": "fine_gravel",
      "distance": 1.31,
      "percentOfRoute": 0.0036,
      "byHighway": [
        {
          "highway": "cycleway",
          "distance": 1.31,
          "percentOfSurface": 1,
          "percentOfRoute": 0.0036
        }
      ]
    },
    {
      "surface": "concrete",
      "distance": 1.02,
      "percentOfRoute": 0.0029,
      "byHighway": [
        {
          "highway": "footway",
          "distance": 0.74,
          "percentOfSurface": 0.72,
          "percentOfRoute": 0.0021
        },
        {
          "highway": "path",
          "distance": 0.26,
          "percentOfSurface": 0.25,
          "percentOfRoute": 0.00071
        },
        {
          "highway": "cycleway",
          "distance": 0.028,
          "percentOfSurface": 0.027,
          "percentOfRoute": 0.00008
        }
      ]
    },
    {
      "surface": "ground",
      "distance": 0.9,
      "percentOfRoute": 0.0025,
      "byHighway": [
        {
          "highway": "footway",
          "distance": 0.9,
          "percentOfSurface": 1,
          "percentOfRoute": 0.0025
        }
      ]
    },
    {
      "surface": "wood",
      "distance": 0.32,
      "percentOfRoute": 0.00089,
      "byHighway": [
        {
          "highway": "cycleway",
          "distance": 0.17,
          "percentOfSurface": 0.54,
          "percentOfRoute": 0.00048
        },
        {
          "highway": "footway",
          "distance": 0.054,
          "percentOfSurface": 0.17,
          "percentOfRoute": 0.00015
        },
        {
          "highway": "path",
          "distance": 0.053,
          "percentOfSurface": 0.16,
          "percentOfRoute": 0.00015
        },
        {
          "highway": "residential",
          "distance": 0.041,
          "percentOfSurface": 0.13,
          "percentOfRoute": 0.00011
        }
      ]
    },
    {
      "surface": "grass",
      "distance": 0.27,
      "percentOfRoute": 0.00075,
      "byHighway": [
        {
          "highway": "path",
          "distance": 0.27,
          "percentOfSurface": 1,
          "percentOfRoute": 0.00075
        }
      ]
    },
    {
      "surface": "paving_stones",
      "distance": 0.011,
      "percentOfRoute": 0.00003,
      "byHighway": [
        {
          "highway": "footway",
          "distance": 0.011,
          "percentOfSurface": 1,
          "percentOfRoute": 0.00003
        }
      ]
    }
  ]
}