{
  "distanceUnit": "mile",
  "distance": 82.3,
  "unpavedPavedIndeterminate": {
    "unpaved": {
      "distance": 25.1,
      "percentOfRoute": 0.31
    },
    "paved": {
      "distance": 31,
      "percentOfRoute": 0.38
    },
    "indeterminate": {
      "distance": 26.1,
      "percentOfRoute": 0.32
    }
  },
  "unpavedRoad": {
    "distance": 19.8,
    "percentOfRoute": 0.24
  },
  "disusedOrAbandoned": {
    "distance": 0,
    "percentOfRoute": 0
  },
  "byHighway": [
    {
      "highway": "residential",
      "distance": 44.1,
      "percentOfRoute": 0.54,
      "bySurface": [
        {
          "surface": "NONE",
          "distance": 18.6,
          "percentOfHighway": 0.42,
          "percentOfRoute": 0.23
        },
        {
          "surface": "compacted",
          "distance": 11.6,
          "percentOfHighway": 0.26,
          "percentOfRoute": 0.14
        },
        {
          "surface": "asphalt",
          "distance": 9.5,
          "percentOfHighway": 0.22,
          "percentOfRoute": 0.12
        },
        {
          "surface": "unpaved",
          "distance": 4.4,
          "percentOfHighway": 0.099,
          "percentOfRoute": 0.053
        },
        {
          "surface": "wood",
          "distance": 0.041,
          "percentOfHighway": 0.00093,
          "percentOfRoute": 0.0005
        }
      ]
    },
    {
      "highway": "major",
      "distance": 15.5,
      "percentOfRoute": 0.19,
      "bySurface": [
        {
          "surface": "NONE",
          "distance": 11.4,
          "percentOfHighway": 0.74,
          "percentOfRoute": 0.14
        },
        {
          "surface": "asphalt",
          "distance": 4.1,
          "percentOfHighway": 0.26,
          "percentOfRoute": 0.049
        }
      ]
    },
    {
      "highway": "cycleway",
      "distance": 8.1,
      "percentOfRoute": 0.099,
      "bySurface": [
        {
          "surface": "NONE",
          "distance": 6.7,
          "percentOfHighway": 0.83,
          "percentOfRoute": 0.082
        },
        {
          "surface": "dirt",
          "distance": 1.4,
          "percentOfHighway": 0.17,
          "percentOfRoute": 0.017
        },
        {
          "surface": "asphalt",
          "distance": 0.012,
          "percentOfHighway": 0.0015,
          "percentOfRoute": 0.00014
        }
      ]
    },
    {
      "highway": "footway",
      "distance": 7.2,
      "percentOfRoute": 0.088,
      "bySurface": [
        {
          "surface": "NONE",
          "distance": 5.3,
          "percentOfHighway": 0.74,
          "percentOfRoute": 0.065
        },
        {
          "surface": "compacted",
          "distance": 0.6,
          "percentOfHighway": 0.083,
          "percentOfRoute": 0.0073
        },
        {
          "surface": "dirt",
          "distance": 0.51,
          "percentOfHighway": 0.07,
          "percentOfRoute": 0.0061
        },
        {
          "surface": "paved",
          "distance": 0.41,
          "percentOfHighway": 0.056,
          "percentOfRoute": 0.005
        },
        {
          "surface": "asphalt",
          "distance": 0.36,
          "percentOfHighway": 0.05,
          "percentOfRoute": 0.0044
        },
        {
          "surface": "concrete",
          "distance": 0.015,
          "percentOfHighway": 0.0021,
          "percentOfRoute": 0.00018
        }
      ]
    },
    {
      "highway": "path",
      "distance": 3.5,
      "percentOfRoute": 0.043,
      "bySurface": [
        {
          "surface": "dirt",
          "distance": 1.95,
          "percentOfHighway": 0.55,
          "percentOfRoute": 0.024
        },
        {
          "surface": "asphalt",
          "distance": 1.33,
          "percentOfHighway": 0.38,
          "percentOfRoute": 0.016
        },
        {
          "surface": "NONE",
          "distance": 0.24,
          "percentOfHighway": 0.068,
          "percentOfRoute": 0.0029
        }
      ]
    },
    {
      "highway": "track",
      "distance": 2.38,
      "percentOfRoute": 0.029,
      "bySurface": [
        {
          "surface": "dirt",
          "distance": 1.28,
          "percentOfHighway": 0.54,
          "percentOfRoute": 0.015
        },
        {
          "surface": "compacted",
          "distance": 0.63,
          "percentOfHighway": 0.27,
          "percentOfRoute": 0.0077
        },
        {
          "surface": "earth",
          "distance": 0.46,
          "percentOfHighway": 0.19,
          "percentOfRoute": 0.0056
        },
        {
          "surface": "NONE",
          "distance": 0.014,
          "percentOfHighway": 0.0057,
          "percentOfRoute": 0.00017
        }
      ]
    },
    {
      "highway": "service",
      "distance": 0.86,
      "percentOfRoute": 0.01,
      "bySurface": [
        {
          "surface": "NONE",
          "distance": 0.82,
          "percentOfHighway": 0.96,
          "percentOfRoute": 0.01
        },
        {
          "surface": "asphalt",
          "distance": 0.031,
          "percentOfHighway": 0.036,
          "percentOfRoute": 0.00038
        },
        {
          "surface": "unpaved",
          "distance": 0.0031,
          "percentOfHighway": 0.0036,
          "percentOfRoute": 0.00004
        }
      ]
    },
    {
      "highway": "unclassified",
      "distance": 0.65,
      "percentOfRoute": 0.0079,
      "bySurface": [
        {
          "surface": "paved",
          "distance": 0.65,
          "percentOfHighway": 1,
          "percentOfRoute": 0.0079
        }
      ]
    }
  ],
  "bySurface": [
    {
      "surface": "NONE",
      "distance": 43.1,
      "percentOfRoute": 0.52,
      "byHighway": [
        {
          "highway": "residential",
          "distance": 18.6,
          "percentOfSurface": 0.43,
          "percentOfRoute": 0.23
        },
        {
          "highway": "major",
          "distance": 11.4,
          "percentOfSurface": 0.26,
          "percentOfRoute": 0.14
        },
        {
          "highway": "cycleway",
          "distance": 6.7,
          "percentOfSurface": 0.16,
          "percentOfRoute": 0.082
        },
        {
          "highway": "footway",
          "distance": 5.3,
          "percentOfSurface": 0.12,
          "percentOfRoute": 0.065
        },
        {
          "highway": "service",
          "distance": 0.82,
          "percentOfSurface": 0.019,
          "percentOfRoute": 0.01
        },
        {
          "highway": "path",
          "distance": 0.24,
          "percentOfSurface": 0.0055,
          "percentOfRoute": 0.0029
        },
        {
          "highway": "track",
          "distance": 0.014,
          "percentOfSurface": 0.00032,
          "percentOfRoute": 0.00017
        }
      ]
    },
    {
      "surface": "asphalt",
      "distance": 15.3,
      "percentOfRoute": 0.19,
      "byHighway": [
        {
          "highway": "residential",
          "distance": 9.5,
          "percentOfSurface": 0.62,
          "percentOfRoute": 0.12
        },
        {
          "highway": "major",
          "distance": 4.1,
          "percentOfSurface": 0.27,
          "percentOfRoute": 0.049
        },
        {
          "highway": "path",
          "distance": 1.33,
          "percentOfSurface": 0.087,
          "percentOfRoute": 0.016
        },
        {
          "highway": "footway",
          "distance": 0.36,
          "percentOfSurface": 0.024,
          "percentOfRoute": 0.0044
        },
        {
          "highway": "service",
          "distance": 0.031,
          "percentOfSurface": 0.002,
          "percentOfRoute": 0.00038
        },
        {
          "highway": "cycleway",
          "distance": 0.012,
          "percentOfSurface": 0.00077,
          "percentOfRoute": 0.00014
        }
      ]
    },
    {
      "surface": "compacted",
      "distance": 12.8,
      "percentOfRoute": 0.16,
      "byHighway": [
        {
          "highway": "residential",
          "distance": 11.6,
          "percentOfSurface": 0.9,
          "percentOfRoute": 0.14
        },
        {
          "highway": "track",
          "distance": 0.63,
          "percentOfSurface": 0.049,
          "percentOfRoute": 0.0077
        },
        {
          "highway": "footway",
          "distance": 0.6,
          "percentOfSurface": 0.047,
          "percentOfRoute": 0.0073
        }
      ]
    },
    {
      "surface": "dirt",
      "distance": 5.1,
      "percentOfRoute": 0.062,
      "byHighway": [
        {
          "highway": "path",
          "distance": 1.95,
          "percentOfSurface": 0.38,
          "percentOfRoute": 0.024
        },
        {
          "highway": "cycleway",
          "distance": 1.4,
          "percentOfSurface": 0.27,
          "percentOfRoute": 0.017
        },
        {
          "highway": "track",
          "distance": 1.28,
          "percentOfSurface": 0.25,
          "percentOfRoute": 0.015
        },
        {
          "highway": "footway",
          "distance": 0.51,
          "percentOfSurface": 0.099,
          "percentOfRoute": 0.0061
        }
      ]
    },
    {
      "surface": "unpaved",
      "distance": 4.4,
      "percentOfRoute": 0.053,
      "byHighway": [
        {
          "highway": "residential",
          "distance": 4.4,
          "percentOfSurface": 1,
          "percentOfRoute": 0.053
        },
        {
          "highway": "service",
          "distance": 0.0031,
          "percentOfSurface": 0.00071,
          "percentOfRoute": 0.00004
        }
      ]
    },
    {
      "surface": "paved",
      "distance": 1.06,
      "percentOfRoute": 0.013,
      "byHighway": [
        {
          "highway": "unclassified",
          "distance": 0.65,
          "percentOfSurface": 0.62,
          "percentOfRoute": 0.0079
        },
        {
          "highway": "footway",
          "distance": 0.41,
          "percentOfSurface": 0.38,
          "percentOfRoute": 0.005
        }
      ]
    },
    {
      "surface": "earth",
      "distance": 0.46,
      "percentOfRoute": 0.0056,
      "byHighway": [
        {
          "highway": "track",
          "distance": 0.46,
          "percentOfSurface": 1,
          "percentOfRoute": 0.0056
        }
      ]
    },
    {
      "surface": "wood",
      "distance": 0.041,
      "percentOfRoute": 0.0005,
      "byHighway": [
        {
          "highway": "residential",
          "distance": 0.041,
          "percentOfSurface": 1,
          "percentOfRoute": 0.0005
        }
      ]
    },
    {
      "surface": "concrete",
      "distance": 0.015,
      "percentOfRoute": 0.00018,
      "byHighway": [
        {
          "highway": "footway",
          "distance": 0.015,
          "percentOfSurface": 1,
          "percentOfRoute": 0.00018
        }
      ]
    }
  ]
}