{
  "distanceUnit": "mile",
  "distance": 77.7,
  "filteredAscendUnit": "foot",
  "filteredAscend": 4327.4,
  "filteredAscendPerUnitDistance": 55.7,
  "unpavedPavedIndeterminate": {
    "unpaved": {
      "distance": 20.5,
      "percentOfRoute": 0.26
    },
    "paved": {
      "distance": 54.7,
      "percentOfRoute": 0.7
    },
    "indeterminate": {
      "distance": 2.54,
      "percentOfRoute": 0.033
    }
  },
  "unpavedRoad": {
    "distance": 20.2,
    "percentOfRoute": 0.26
  },
  "disusedOrAbandoned": {
    "distance": 0,
    "percentOfRoute": 0
  },
  "noAccess": {
    "distance": 0,
    "percentOfRoute": 0
  },
  "impassable": {
    "distance": 0,
    "percentOfRoute": 0
  },
  "byBikeClassification": [
    {
      "classification": "none",
      "distance": 54.7,
      "percentOfRoute": 0.7
    },
    {
      "classification": "dedicated",
      "distance": 18.1,
      "percentOfRoute": 0.23
    },
    {
      "classification": "sharrow",
      "distance": 4.9,
      "percentOfRoute": 0.063
    }
  ],
  "byHighway": [
    {
      "highway": "residential",
      "distance": 29.3,
      "percentOfRoute": 0.38,
      "bySurface": [
        {
          "surface": "asphalt",
          "distance": 20.9,
          "percentOfHighway": 0.71,
          "percentOfRoute": 0.27
        },
        {
          "surface": "compacted",
          "distance": 2.54,
          "percentOfHighway": 0.087,
          "percentOfRoute": 0.033
        },
        {
          "surface": "NONE",
          "distance": 2.26,
          "percentOfHighway": 0.077,
          "percentOfRoute": 0.029
        },
        {
          "surface": "unpaved",
          "distance": 1.82,
          "percentOfHighway": 0.062,
          "percentOfRoute": 0.023
        },
        {
          "surface": "paved",
          "distance": 1.81,
          "percentOfHighway": 0.062,
          "percentOfRoute": 0.023
        }
      ]
    },
    {
      "highway": "cycleway",
      "distance": 16,
      "percentOfRoute": 0.21,
      "bySurface": [
        {
          "surface": "asphalt",
          "distance": 11,
          "percentOfHighway": 0.69,
          "percentOfRoute": 0.14
        },
        {
          "surface": "paved",
          "distance": 2.46,
          "percentOfHighway": 0.15,
          "percentOfRoute": 0.032
        },
        {
          "surface": "unpaved",
          "distance": 1.95,
          "percentOfHighway": 0.12,
          "percentOfRoute": 0.025
        },
        {
          "surface": "concrete",
          "distance": 0.28,
          "percentOfHighway": 0.018,
          "percentOfRoute": 0.0036
        },
        {
          "surface": "NONE",
          "distance": 0.23,
          "percentOfHighway": 0.015,
          "percentOfRoute": 0.003
        },
        {
          "surface": "wood",
          "distance": 0.068,
          "percentOfHighway": 0.0043,
          "percentOfRoute": 0.00088
        }
      ]
    },
    {
      "highway": "major",
      "distance": 15.1,
      "percentOfRoute": 0.19,
      "bySurface": [
        {
          "surface": "asphalt",
          "distance": 11.9,
          "percentOfHighway": 0.78,
          "percentOfRoute": 0.15
        },
        {
          "surface": "NONE",
          "distance": 3.3,
          "percentOfHighway": 0.22,
          "percentOfRoute": 0.042
        }
      ]
    },
    {
      "highway": "track",
      "distance": 13.8,
      "percentOfRoute": 0.18,
      "bySurface": [
        {
          "surface": "unpaved",
          "distance": 7.9,
          "percentOfHighway": 0.57,
          "percentOfRoute": 0.1
        },
        {
          "surface": "NONE",
          "distance": 3.4,
          "percentOfHighway": 0.25,
          "percentOfRoute": 0.044
        },
        {
          "surface": "compacted",
          "distance": 1.9,
          "percentOfHighway": 0.14,
          "percentOfRoute": 0.024
        },
        {
          "surface": "gravel",
          "distance": 0.59,
          "percentOfHighway": 0.043,
          "percentOfRoute": 0.0076
        }
      ]
    },
    {
      "highway": "footway",
      "distance": 2.08,
      "percentOfRoute": 0.027,
      "bySurface": [
        {
          "surface": "asphalt",
          "distance": 1.54,
          "percentOfHighway": 0.74,
          "percentOfRoute": 0.02
        },
        {
          "surface": "unpaved",
          "distance": 0.3,
          "percentOfHighway": 0.14,
          "percentOfRoute": 0.0038
        },
        {
          "surface": "concrete",
          "distance": 0.14,
          "percentOfHighway": 0.067,
          "percentOfRoute": 0.0018
        },
        {
          "surface": "NONE",
          "distance": 0.06,
          "percentOfHighway": 0.029,
          "percentOfRoute": 0.00077
        },
        {
          "surface": "paved",
          "distance": 0.042,
          "percentOfHighway": 0.02,
          "percentOfRoute": 0.00054
        }
      ]
    },
    {
      "highway": "unclassified",
      "distance": 0.81,
      "percentOfRoute": 0.01,
      "bySurface": [
        {
          "surface": "asphalt",
          "distance": 0.81,
          "percentOfHighway": 1,
          "percentOfRoute": 0.01
        }
      ]
    },
    {
      "highway": "service",
      "distance": 0.58,
      "percentOfRoute": 0.0075,
      "bySurface": [
        {
          "surface": "asphalt",
          "distance": 0.54,
          "percentOfHighway": 0.92,
          "percentOfRoute": 0.0069
        },
        {
          "surface": "NONE",
          "distance": 0.043,
          "percentOfHighway": 0.073,
          "percentOfRoute": 0.00055
        },
        {
          "surface": "unpaved",
          "distance": 0.0037,
          "percentOfHighway": 0.0064,
          "percentOfRoute": 0.00005
        }
      ]
    },
    {
      "highway": "path",
      "distance": 0.02,
      "percentOfRoute": 0.00026,
      "bySurface": [
        {
          "surface": "NONE",
          "distance": 0.02,
          "percentOfHighway": 1,
          "percentOfRoute": 0.00026
        }
      ]
    }
  ],
  "bySurface": [
    {
      "surface": "asphalt",
      "distance": 46.6,
      "percentOfRoute": 0.6,
      "byHighway": [
        {
          "highway": "residential",
          "distance": 20.9,
          "percentOfSurface": 0.45,
          "percentOfRoute": 0.27
        },
        {
          "highway": "major",
          "distance": 11.9,
          "percentOfSurface": 0.25,
          "percentOfRoute": 0.15
        },
        {
          "highway": "cycleway",
          "distance": 11,
          "percentOfSurface": 0.24,
          "percentOfRoute": 0.14
        },
        {
          "highway": "footway",
          "distance": 1.54,
          "percentOfSurface": 0.033,
          "percentOfRoute": 0.02
        },
        {
          "highway": "unclassified",
          "distance": 0.81,
          "percentOfSurface": 0.017,
          "percentOfRoute": 0.01
        },
        {
          "highway": "service",
          "distance": 0.54,
          "percentOfSurface": 0.012,
          "percentOfRoute": 0.0069
        }
      ]
    },
    {
      "surface": "unpaved",
      "distance": 12,
      "percentOfRoute": 0.15,
      "byHighway": [
        {
          "highway": "track",
          "distance": 7.9,
          "percentOfSurface": 0.66,
          "percentOfRoute": 0.1
        },
        {
          "highway": "cycleway",
          "distance": 1.95,
          "percentOfSurface": 0.16,
          "percentOfRoute": 0.025
        },
        {
          "highway": "residential",
          "distance": 1.82,
          "percentOfSurface": 0.15,
          "percentOfRoute": 0.023
        },
        {
          "highway": "footway",
          "distance": 0.3,
          "percentOfSurface": 0.025,
          "percentOfRoute": 0.0038
        },
        {
          "highway": "service",
          "distance": 0.0037,
          "percentOfSurface": 0.00031,
          "percentOfRoute": 0.00005
        }
      ]
    },
    {
      "surface": "NONE",
      "distance": 9.3,
      "percentOfRoute": 0.12,
      "byHighway": [
        {
          "highway": "track",
          "distance": 3.4,
          "percentOfSurface": 0.37,
          "percentOfRoute": 0.044
        },
        {
          "highway": "major",
          "distance": 3.3,
          "percentOfSurface": 0.35,
          "percentOfRoute": 0.042
        },
        {
          "highway": "residential",
          "distance": 2.26,
          "percentOfSurface": 0.24,
          "percentOfRoute": 0.029
        },
        {
          "highway": "cycleway",
          "distance": 0.23,
          "percentOfSurface": 0.025,
          "percentOfRoute": 0.003
        },
        {
          "highway": "footway",
          "distance": 0.06,
          "percentOfSurface": 0.0064,
          "percentOfRoute": 0.00077
        },
        {
          "highway": "service",
          "distance": 0.043,
          "percentOfSurface": 0.0046,
          "percentOfRoute": 0.00055
        },
        {
          "highway": "path",
          "distance": 0.02,
          "percentOfSurface": 0.0021,
          "percentOfRoute": 0.00026
        }
      ]
    },
    {
      "surface": "compacted",
      "distance": 4.4,
      "percentOfRoute": 0.057,
      "byHighway": [
        {
          "highway": "residential",
          "distance": 2.54,
          "percentOfSurface": 0.57,
          "percentOfRoute": 0.033
        },
        {
          "highway": "track",
          "distance": 1.9,
          "percentOfSurface": 0.43,
          "percentOfRoute": 0.024
        }
      ]
    },
    {
      "surface": "paved",
      "distance": 4.3,
      "percentOfRoute": 0.056,
      "byHighway": [
        {
          "highway": "cycleway",
          "distance": 2.46,
          "percentOfSurface": 0.57,
          "percentOfRoute": 0.032
        },
        {
          "highway": "residential",
          "distance": 1.81,
          "percentOfSurface": 0.42,
          "percentOfRoute": 0.023
        },
        {
          "highway": "footway",
          "distance": 0.042,
          "percentOfSurface": 0.0096,
          "percentOfRoute": 0.00054
        }
      ]
    },
    {
      "surface": "gravel",
      "distance": 0.59,
      "percentOfRoute": 0.0076,
      "byHighway": [
        {
          "highway": "track",
          "distance": 0.59,
          "percentOfSurface": 1,
          "percentOfRoute": 0.0076
        }
      ]
    },
    {
      "surface": "concrete",
      "distance": 0.42,
      "percentOfRoute": 0.0054,
      "byHighway": [
        {
          "highway": "cycleway",
          "distance": 0.28,
          "percentOfSurface": 0.67,
          "percentOfRoute": 0.0036
        },
        {
          "highway": "footway",
          "distance": 0.14,
          "percentOfSurface": 0.33,
          "percentOfRoute": 0.0018
        }
      ]
    },
    {
      "surface": "wood",
      "distance": 0.068,
      "percentOfRoute": 0.00088,
      "byHighway": [
        {
          "highway": "cycleway",
          "distance": 0.068,
          "percentOfSurface": 1,
          "percentOfRoute": 0.00088
        }
      ]
    }
  ]
}