{
  "distanceUnit": "mile",
  "distance": 76.3,
  "unpavedPavedIndeterminate": {
    "unpaved": {
      "distance": 41.6,
      "percentOfRoute": 0.54
    },
    "paved": {
      "distance": 20.2,
      "percentOfRoute": 0.26
    },
    "indeterminate": {
      "distance": 14.5,
      "percentOfRoute": 0.19
    }
  },
  "unpavedRoad": {
    "distance": 24,
    "percentOfRoute": 0.32
  },
  "disusedOrAbandoned": {
    "distance": 0,
    "percentOfRoute": 0
  },
  "byHighway": [
    {
      "highway": "residential",
      "distance": 40.4,
      "percentOfRoute": 0.53,
      "bySurface": [
        {
          "surface": "NONE",
          "distance": 13.1,
          "percentOfHighway": 0.32,
          "percentOfRoute": 0.17
        },
        {
          "surface": "asphalt",
          "distance": 11.8,
          "percentOfHighway": 0.29,
          "percentOfRoute": 0.15
        },
        {
          "surface": "compacted",
          "distance": 11.6,
          "percentOfHighway": 0.29,
          "percentOfRoute": 0.15
        },
        {
          "surface": "unpaved",
          "distance": 3.9,
          "percentOfHighway": 0.097,
          "percentOfRoute": 0.052
        },
        {
          "surface": "wood",
          "distance": 0.041,
          "percentOfHighway": 0.001,
          "percentOfRoute": 0.00054
        }
      ]
    },
    {
      "highway": "path",
      "distance": 15.6,
      "percentOfRoute": 0.2,
      "bySurface": [
        {
          "surface": "unpaved",
          "distance": 8.6,
          "percentOfHighway": 0.55,
          "percentOfRoute": 0.11
        },
        {
          "surface": "dirt",
          "distance": 5.4,
          "percentOfHighway": 0.34,
          "percentOfRoute": 0.07
        },
        {
          "surface": "NONE",
          "distance": 1.67,
          "percentOfHighway": 0.11,
          "percentOfRoute": 0.022
        }
      ]
    },
    {
      "highway": "track",
      "distance": 8.2,
      "percentOfRoute": 0.11,
      "bySurface": [
        {
          "surface": "NONE",
          "distance": 4.4,
          "percentOfHighway": 0.54,
          "percentOfRoute": 0.058
        },
        {
          "surface": "dirt",
          "distance": 1.85,
          "percentOfHighway": 0.23,
          "percentOfRoute": 0.024
        },
        {
          "surface": "gravel",
          "distance": 0.79,
          "percentOfHighway": 0.097,
          "percentOfRoute": 0.01
        },
        {
          "surface": "compacted",
          "distance": 0.63,
          "percentOfHighway": 0.078,
          "percentOfRoute": 0.0083
        },
        {
          "surface": "earth",
          "distance": 0.46,
          "percentOfHighway": 0.057,
          "percentOfRoute": 0.006
        }
      ]
    },
    {
      "highway": "major",
      "distance": 4.8,
      "percentOfRoute": 0.062,
      "bySurface": [
        {
          "surface": "asphalt",
          "distance": 3.4,
          "percentOfHighway": 0.7,
          "percentOfRoute": 0.044
        },
        {
          "surface": "NONE",
          "distance": 1.4,
          "percentOfHighway": 0.3,
          "percentOfRoute": 0.018
        }
      ]
    },
    {
      "highway": "footway",
      "distance": 4,
      "percentOfRoute": 0.053,
      "bySurface": [
        {
          "surface": "NONE",
          "distance": 3.7,
          "percentOfHighway": 0.92,
          "percentOfRoute": 0.048
        },
        {
          "surface": "dirt",
          "distance": 0.31,
          "percentOfHighway": 0.077,
          "percentOfRoute": 0.004
        },
        {
          "surface": "wood",
          "distance": 0.016,
          "percentOfHighway": 0.0039,
          "percentOfRoute": 0.0002
        }
      ]
    },
    {
      "highway": "unclassified",
      "distance": 1.42,
      "percentOfRoute": 0.019,
      "bySurface": [
        {
          "surface": "NONE",
          "distance": 0.89,
          "percentOfHighway": 0.62,
          "percentOfRoute": 0.012
        },
        {
          "surface": "paved",
          "distance": 0.38,
          "percentOfHighway": 0.27,
          "percentOfRoute": 0.005
        },
        {
          "surface": "unpaved",
          "distance": 0.16,
          "percentOfHighway": 0.11,
          "percentOfRoute": 0.002
        }
      ]
    },
    {
      "highway": "pedestrian",
      "distance": 0.79,
      "percentOfRoute": 0.01,
      "bySurface": [
        {
          "surface": "NONE",
          "distance": 0.56,
          "percentOfHighway": 0.72,
          "percentOfRoute": 0.0074
        },
        {
          "surface": "paved",
          "distance": 0.22,
          "percentOfHighway": 0.28,
          "percentOfRoute": 0.0029
        }
      ]
    },
    {
      "highway": "service",
      "distance": 0.74,
      "percentOfRoute": 0.0097,
      "bySurface": [
        {
          "surface": "NONE",
          "distance": 0.5,
          "percentOfHighway": 0.68,
          "percentOfRoute": 0.0066
        },
        {
          "surface": "unpaved",
          "distance": 0.19,
          "percentOfHighway": 0.25,
          "percentOfRoute": 0.0025
        },
        {
          "surface": "asphalt",
          "distance": 0.054,
          "percentOfHighway": 0.073,
          "percentOfRoute": 0.00071
        }
      ]
    },
    {
      "highway": "cycleway",
      "distance": 0.35,
      "percentOfRoute": 0.0046,
      "bySurface": [
        {
          "surface": "asphalt",
          "distance": 0.35,
          "percentOfHighway": 1,
          "percentOfRoute": 0.0046
        }
      ]
    }
  ],
  "bySurface": [
    {
      "surface": "NONE",
      "distance": 26.3,
      "percentOfRoute": 0.34,
      "byHighway": [
        {
          "highway": "residential",
          "distance": 13.1,
          "percentOfSurface": 0.5,
          "percentOfRoute": 0.17
        },
        {
          "highway": "track",
          "distance": 4.4,
          "percentOfSurface": 0.17,
          "percentOfRoute": 0.058
        },
        {
          "highway": "footway",
          "distance": 3.7,
          "percentOfSurface": 0.14,
          "percentOfRoute": 0.048
        },
        {
          "highway": "path",
          "distance": 1.67,
          "percentOfSurface": 0.063,
          "percentOfRoute": 0.022
        },
        {
          "highway": "major",
          "distance": 1.4,
          "percentOfSurface": 0.053,
          "percentOfRoute": 0.018
        },
        {
          "highway": "unclassified",
          "distance": 0.89,
          "percentOfSurface": 0.034,
          "percentOfRoute": 0.012
        },
        {
          "highway": "pedestrian",
          "distance": 0.56,
          "percentOfSurface": 0.021,
          "percentOfRoute": 0.0074
        },
        {
          "highway": "service",
          "distance": 0.5,
          "percentOfSurface": 0.019,
          "percentOfRoute": 0.0066
        }
      ]
    },
    {
      "surface": "asphalt",
      "distance": 15.5,
      "percentOfRoute": 0.2,
      "byHighway": [
        {
          "highway": "residential",
          "distance": 11.8,
          "percentOfSurface": 0.76,
          "percentOfRoute": 0.15
        },
        {
          "highway": "major",
          "distance": 3.4,
          "percentOfSurface": 0.22,
          "percentOfRoute": 0.044
        },
        {
          "highway": "cycleway",
          "distance": 0.35,
          "percentOfSurface": 0.023,
          "percentOfRoute": 0.0046
        },
        {
          "highway": "service",
          "distance": 0.054,
          "percentOfSurface": 0.0035,
          "percentOfRoute": 0.00071
        }
      ]
    },
    {
      "surface": "unpaved",
      "distance": 12.9,
      "percentOfRoute": 0.17,
      "byHighway": [
        {
          "highway": "path",
          "distance": 8.6,
          "percentOfSurface": 0.67,
          "percentOfRoute": 0.11
        },
        {
          "highway": "residential",
          "distance": 3.9,
          "percentOfSurface": 0.31,
          "percentOfRoute": 0.052
        },
        {
          "highway": "service",
          "distance": 0.19,
          "percentOfSurface": 0.015,
          "percentOfRoute": 0.0025
        },
        {
          "highway": "unclassified",
          "distance": 0.16,
          "percentOfSurface": 0.012,
          "percentOfRoute": 0.002
        }
      ]
    },
    {
      "surface": "compacted",
      "distance": 12.2,
      "percentOfRoute": 0.16,
      "byHighway": [
        {
          "highway": "residential",
          "distance": 11.6,
          "percentOfSurface": 0.95,
          "percentOfRoute": 0.15
        },
        {
          "highway": "track",
          "distance": 0.63,
          "percentOfSurface": 0.052,
          "percentOfRoute": 0.0083
        }
      ]
    },
    {
      "surface": "dirt",
      "distance": 7.5,
      "percentOfRoute": 0.099,
      "byHighway": [
        {
          "highway": "path",
          "distance": 5.4,
          "percentOfSurface": 0.71,
          "percentOfRoute": 0.07
        },
        {
          "highway": "track",
          "distance": 1.85,
          "percentOfSurface": 0.25,
          "percentOfRoute": 0.024
        },
        {
          "highway": "footway",
          "distance": 0.31,
          "percentOfSurface": 0.041,
          "percentOfRoute": 0.004
        }
      ]
    },
    {
      "surface": "gravel",
      "distance": 0.79,
      "percentOfRoute": 0.01,
      "byHighway": [
        {
          "highway": "track",
          "distance": 0.79,
          "percentOfSurface": 1,
          "percentOfRoute": 0.01
        }
      ]
    },
    {
      "surface": "paved",
      "distance": 0.6,
      "percentOfRoute": 0.0079,
      "byHighway": [
        {
          "highway": "unclassified",
          "distance": 0.38,
          "percentOfSurface": 0.63,
          "percentOfRoute": 0.005
        },
        {
          "highway": "pedestrian",
          "distance": 0.22,
          "percentOfSurface": 0.37,
          "percentOfRoute": 0.0029
        }
      ]
    },
    {
      "surface": "earth",
      "distance": 0.46,
      "percentOfRoute": 0.006,
      "byHighway": [
        {
          "highway": "track",
          "distance": 0.46,
          "percentOfSurface": 1,
          "percentOfRoute": 0.006
        }
      ]
    },
    {
      "surface": "wood",
      "distance": 0.057,
      "percentOfRoute": 0.00074,
      "byHighway": [
        {
          "highway": "residential",
          "distance": 0.041,
          "percentOfSurface": 0.73,
          "percentOfRoute": 0.00054
        },
        {
          "highway": "footway",
          "distance": 0.016,
          "percentOfSurface": 0.27,
          "percentOfRoute": 0.0002
        }
      ]
    }
  ]
}